STARLINK-30251          
1 57532U 23115M   26067.83471449  .00001905  00000+0  80691-4 0  9997
2 57532  43.0011   6.1686 0001006 298.1512  61.9237 15.26742221142226
PELICAN-6               
1 66703U 25276AP  26068.70709364  .00077979  00000+0  29726-2 0  9998
2 66703  97.4276 144.2072 0003569 157.8575 202.2819 15.26377980 15334
